{
    "links": {
        "self": "http://www.neowsapp.com/rest/v1/neo/3838869?api_key=iIulBulltgU6a56xZRHN4H3l9WmuAYTsLGpBGhQ2"
    },
    "id": "3838869",
    "neo_reference_id": "3838869",
    "name": "(2019 DX1)",
    "designation": "2019 DX1",
    "nasa_jpl_url": "http://ssd.jpl.nasa.gov/sbdb.cgi?sstr=3838869",
    "absolute_magnitude_h": 24.3,
    "estimated_diameter": {
        "kilometers": {
            "estimated_diameter_min": 0.0366906138,
            "estimated_diameter_max": 0.0820427065
        },
        "meters": {
            "estimated_diameter_min": 36.6906137531,
            "estimated_diameter_max": 82.0427064882
        },
        "miles": {
            "estimated_diameter_min": 0.0227984834,
            "estimated_diameter_max": 0.0509789586
        },
        "feet": {
            "estimated_diameter_min": 120.3760332259,
            "estimated_diameter_max": 269.1689931548
        }
    },
    "is_potentially_hazardous_asteroid": false,
    "close_approach_data": [
        {
            "close_approach_date": "2019-02-06",
            "close_approach_date_full": "2019-Feb-06 17:48",
            "epoch_date_close_approach": 1549475280000,
            "relative_velocity": {
                "kilometers_per_second": "9.1656186486",
                "kilometers_per_hour": "32996.2271349466",
                "miles_per_hour": "20502.572355045"
            },
            "miss_distance": {
                "astronomical": "0.0857875275",
                "lunar": "33.3713481975",
                "kilometers": "12833631.386566425",
                "miles": "7974448.763509665"
            },
            "orbiting_body": "Earth"
        }
    ],
    "orbital_data": {
        "orbit_id": "4",
        "orbit_determination_date": "2020-09-11 07:42:39",
        "first_observation_date": "2019-02-28",
        "last_observation_date": "2019-03-12",
        "data_arc_in_days": 12,
        "observations_used": 27,
        "orbit_uncertainty": "8",
        "minimum_orbit_intersection": ".083905",
        "jupiter_tisserand_invariant": "4.406",
        "epoch_osculation": "2458544.5",
        "eccentricity": ".3940494233115551",
        "semi_major_axis": "1.517889529993319",
        "inclination": "9.986822437376981",
        "ascending_node_longitude": "162.6241900704187",
        "orbital_period": "683.0597185793101",
        "perihelion_distance": ".9197660360488044",
        "perihelion_argument": "284.2291927004513",
        "aphelion_distance": "2.116013023937834",
        "perihelion_time": "2458479.322255401422",
        "mean_anomaly": "34.35129816217331",
        "mean_motion": ".5270403014669944",
        "equinox": "J2000",
        "orbit_class": {
            "orbit_class_type": "APO",
            "orbit_class_description": "Near-Earth asteroid orbits which cross the Earth’s orbit similar to that of 1862 Apollo",
            "orbit_class_range": "a (semi-major axis) > 1.0 AU; q (perihelion) < 1.017 AU"
        }
    },
    "is_sentry_object": false
}